#aV2011  8 21  0  0   .00000000      96 DD+AD WGS84 FIT  NGA
## 1650       .00000000   900.00000000 55794  .0000000000000
+   32     1  2  3  4  5  6  7  8  9 10 11 12 13 14 15 16 17
+         18 19 20 21 22 23 24 25 26 27 28 29 30 31 32  0  0
+          0  0  0  0  0  0  0  0  0  0  0  0  0  0  0  0  0
+          0  0  0  0  0  0  0  0  0  0  0  0  0  0  0  0  0
+          0  0  0  0  0  0  0  0  0  0  0  0  0  0  0  0  0
++         0  0  0  0  0  0  0  0  0  0  0  0  0  0  0  0  0
++         0  0  0  0  0  0  0  0  0  0  0  0  0  0  0  0  0
++         0  0  0  0  0  0  0  0  0  0  0  0  0  0  0  0  0
++         0  0  0  0  0  0  0  0  0  0  0  0  0  0  0  0  0
++         0  0  0  0  0  0  0  0  0  0  0  0  0  0  0  0  0
%c cc cc ccc ccc cccc cccc cccc cccc ccccc ccccc ccccc ccccc
%c cc cc ccc ccc cccc cccc cccc cccc ccccc ccccc ccccc ccccc
%f  0.0000000  0.000000000  0.00000000000  0.000000000000000
%f  0.0000000  0.000000000  0.00000000000  0.000000000000000
%i    0    0    0    0      0      0      0      0         0
%i    0    0    0    0      0      0      0      0         0
/*      NGA, ST. LOUIS,MO.                                  
/*   EPHEMERIS COMPUTED FROM  3 DAYS OF DATA                
/* CCCCCCCCCCCCCCCCCCCCCCCCCCCCCCCCCCCCCCCCCCCCCCCCCCCCCCCCC
/* CCCCCCCCCCCCCCCCCCCCCCCCCCCCCCCCCCCCCCCCCCCCCCCCCCCCCCCCC
*  2011  8 21 14 30   .00000000                                                 
P  1 -11931.999605 -13374.411554 -19605.093555     -7.799783                    
V  1  24837.783155  -1951.455768 -13796.951693      -.014121                    
P  2 -11747.093082  14299.347170  18939.935023    352.320937                    
V  2 -24204.958147  -1001.787259 -14796.469885       .016970                    
P  3  10038.347701 -24387.221784    536.513347    757.779841                    
V  3   3360.755837   2617.954693  31237.035622       .049868                    
P  4 -24561.418544   6445.194125   8141.670739    207.969692                    
V  4 -10627.921720  -2836.912391 -28696.652510       .110991                    
P  5  -2952.622885  19470.848669  17759.619713   -207.073432                    
V  5 -13289.130172 -18415.879474  18077.919662      -.053819                    
P  6  14486.840786 -21563.963712   4996.474233    -90.724601                    
V  6    601.600794   7212.457951  30500.276452       .099940                    
P  7 -24062.261571  -6309.391139   9641.481648     23.046924                    
V  7  12122.472872  -2061.330774  28693.445965       .017234                    
P  8 -26780.850738  -2187.685422    565.901331      8.952453                    
V  8    743.459053  -1138.323302  32138.958068       .000935                    
P  9   7598.518994  14157.287697 -21699.669880    100.606839                    
V  9 -26164.083309   1445.372671  -8457.027617       .024092                    
P 10 -15541.838488   3368.086077  21099.189005    -10.640517                    
V 10 -13232.431575 -23881.237299  -5500.972509      -.012028                    
P 11  -5963.222601 -15875.393658 -20792.510807   -178.903535                    
V 11  24960.352265  -7211.856593  -1329.409895      -.033319                    
P 12  11713.163238  23797.268276  -2639.772899     17.269413                    
V 12  -3555.067839  -1802.371307 -31743.226856       .024530                    
P 13 -10719.302098 -10006.371521  22000.189753    255.322853                    
V 13  15822.759901 -23344.235895  -2964.615885      -.017572                    
P 14  18707.234444  -9822.628432 -15830.581863    168.206837                    
V 14  -9526.979960  18144.315737 -22424.145251       .019751                    
P 15  -1516.242137  22980.796004 -13071.030040   -109.753455                    
V 15 -10140.749963  13539.432513  25130.962659       .017550                    
P 16   2388.356399 -19837.179553  17357.787930   -193.069255                    
V 16  12112.145688  18546.312760  19834.740764      -.022818                    
P 17 -18699.604768  10784.199465 -15173.514917    178.361871                    
V 17   8128.235248 -17986.156617 -22814.614487      -.015031                    
P 18  19004.796972  12822.004011 -13384.736122    153.388607                    
V 18   6453.556567  16469.623502  23959.787944       .018825                    
P 19   5883.639499 -23102.188439 -11335.692908   -175.343561                    
V 19  10311.571466 -10548.440077  27250.500180      -.040556                    
P 20 -13813.661272 -22696.712219  -1281.758826     51.975188                    
V 20   3861.851155   -790.830847 -31008.625769       .004356                    
P 21  25603.944721   4892.659190   6980.121417   -166.160230                    
V 21  -8164.805787   3051.860109  29052.039432      -.025173                    
P 22  16869.960764  -1140.837323 -20325.469464    145.197321                    
V 22  12276.588484  23294.444160   8690.834211      -.004269                    
P 23  -4764.172358 -18035.915890  18779.407912    282.323913                    
V 23  13186.253540 -20035.551040 -16265.679488      -.029745                    
P 24 -10711.847397 -14442.416582 -19593.494022    417.222151                    
V 24  24962.088294   -336.028415 -13060.201342       .032568                    
P 25  17780.005491  18000.722369   8096.826014     15.013586                    
V 25   3324.605765  10069.405469 -29555.651518       .017893                    
P 26 -11799.499236  23236.734952  -4450.930205   -130.880272                    
V 26  -4579.503041   2911.485436  31921.361387      -.124138                    
P 27   1434.645532  14398.822345 -21630.729524    297.093124                    
V 27 -28928.320867   1723.955756   -401.044471       .037792                    
P 28 -17106.890896  -3718.291413 -19531.551758     61.287690                    
V 28 -11479.657751 -23162.237607  13847.601578       .029662                    
P 29  11445.585432  10303.060061  21713.426537    233.162969                    
V 29 -14411.841375  23300.293159  -3426.433741       .030730                    
P 30  18856.001693  17398.851935   6558.285481     92.830283                    
V 30   2993.528031   8782.292638 -30150.978072      -.024884                    
P 31  22695.223591  -8003.446802  11674.088908    129.697192                    
V 31  14422.164479   1551.436802 -27235.656739       .056844                    
P 32  -6360.200050 -24863.631575  -7381.345508   -314.592570                    
V 32   6547.040449   7518.752021 -29449.030257      -.068680                    
EOF
